ONEWEB-0558             
1 56059U 23043P   25345.26262037 -.00000082  00000+0 -23053-3 0  9991
2 56059  87.9218 281.4666 0001929  60.8892 299.2434 13.21825164133417
ONEWEB-0559             
1 56060U 23043Q   25345.25109659  .00000118  00000+0  25532-3 0  9994
2 56060  87.9218 281.4622 0002023  71.8933 288.2421 13.21824222133424
ONEWEB-0566             
1 56061U 23043R   25345.24452799  .00000084  00000+0  17068-3 0  9997
2 56061  87.9218 281.4616 0001956  68.3101 291.8241 13.21824630133401
ONEWEB-0568             
1 56062U 23043S   25345.29844504  .00000049  00000+0  95285-4 0  9991
2 56062  87.9045 266.1821 0001466  75.4420 284.6873 13.16595010134253
ONEWEB-0574             
1 56063U 23043T   25345.23795383  .00000174  00000+0  38906-3 0  9991
2 56063  87.9218 281.4507 0001872  82.5457 277.5889 13.21825350133444
ONEWEB-0575             
1 56064U 23043U   25345.29211294  .00000031  00000+0  48761-4 0  9995
2 56064  87.9041 266.1837 0001686  86.7746 273.3578 13.16595482134247
ONEWEB-0576             
1 56065U 23043V   25345.27311335  .00000013  00000+0  31472-6 0  9994
2 56065  87.9049 266.1878 0001701  82.2745 277.8579 13.16594271134233
ONEWEB-0577             
1 56066U 23043W   25345.27944332  .00000013  00000+0  12897-5 0  9993
2 56066  87.9049 266.1858 0002047  97.4785 262.6579 13.16594666134261
